[{"OBJECT_NAME":"CSG-1","OBJECT_ID":"2019-092A","EPOCH":"2026-03-09T22:42:03.650112","MEAN_MOTION":14.82148881,"ECCENTRICITY":0.00014012,"INCLINATION":97.8868,"RA_OF_ASC_NODE":253.98,"ARG_OF_PERICENTER":84.9007,"MEAN_ANOMALY":275.2366,"EPHEMERIS_TYPE":0,"CLASSIFICATION_TYPE":"U","NORAD_CAT_ID":44873,"ELEMENT_SET_NO":999,"REV_AT_EPOCH":33677,"BSTAR":0.00010295004,"MEAN_MOTION_DOT":7.67e-6,"MEAN_MOTION_DDOT":0},{"OBJECT_NAME":"CZ-4B DEB","OBJECT_ID":"1999-057P","EPOCH":"2026-03-09T10:31:29.691840","MEAN_MOTION":14.91091708,"ECCENTRICITY":0.00558084,"INCLINATION":98.442,"RA_OF_ASC_NODE":235.9963,"ARG_OF_PERICENTER":58.1221,"MEAN_ANOMALY":355.8675,"EPHEMERIS_TYPE":0,"CLASSIFICATION_TYPE":"U","NORAD_CAT_ID":26127,"ELEMENT_SET_NO":999,"REV_AT_EPOCH":36984,"BSTAR":0.001630359,"MEAN_MOTION_DOT":0.00016608,"MEAN_MOTION_DDOT":0}]
